STARLINK-35270          
1 65882U 25224A   25307.83710051  .00102685  00000+0  18246-2 0  9990
2 65882  53.1602 237.4924 0002707  82.3213 277.8103 15.49393528  5534
STARLINK-35367          
1 65883U 25224B   25307.51387235 -.00000350  00000+0  17816-5 0  9992
2 65883  53.1606 239.0311 0001642  98.3154 261.8041 15.49306096  5487
STARLINK-35384          
1 65884U 25224C   25307.66667823 -.00020203  00000+0 -35619-3 0  9992
2 65884  53.1594 238.2888 0000994  96.6543  40.0756 15.49304198  5577
STARLINK-35415          
1 65885U 25224D   25307.83336806 -.00041856  00000+0 -74811-3 0  9990
2 65885  53.1596 237.4845 0001345  96.8426 253.9522 15.49324684  5553
STARLINK-35413          
1 65886U 25224E   25307.51181455  .00057175  00000+0  10272-2 0  9993
2 65886  53.1601 239.0132 0002711  90.3820 269.7499 15.49343220  5435
STARLINK-35332          
1 65887U 25224F   25307.83400931  .00128733  00000+0  22804-2 0  9995
2 65887  53.1606 237.4702 0002333  99.7804 260.3469 15.49361538  5561
STARLINK-35362          
1 65888U 25224G   25307.83675490  .00079969  00000+0  14288-2 0  9993
2 65888  53.1612 237.4886 0001300 111.2481 248.8667 15.49358079  5530
STARLINK-35193          
1 65889U 25224H   25306.50002315 -.00105048  00000+0 -19036-2 0  9993
2 65889  53.1593 243.6116 0001272  89.3500 140.4705 15.49346067  5410
STARLINK-34542          
1 65890U 25224J   25307.32000395  .00095792  00000+0  17074-2 0  9994
2 65890  53.1609 239.9489 0001159  84.9589 275.1552 15.49341566  5508
STARLINK-34791          
1 65891U 25224K   25307.83336806 -.00042443  00000+0 -75887-3 0  9994
2 65891  53.1608 237.2430 0001227  97.8579   9.1204 15.49321092  5650
STARLINK-34853          
1 65892U 25224L   25307.77053668  .00264510  00000+0  43889-2 0  9995
2 65892  53.1609 237.7846 0003087 222.5634 137.5137 15.50669785  5504
STARLINK-34921          
1 65893U 25224M   25307.81318944  .00140415  00000+0  24808-2 0  9999
2 65893  53.1613 237.3288 0001152 101.7071 258.4068 15.49387477  5587
