CCSDS_OMM_VERS = 2.0
CREATION_DATE  = 
ORIGINATOR     = 

OBJECT_NAME    = STARLINK-35270
OBJECT_ID      = 2025-224A
CENTER_NAME    = EARTH
REF_FRAME      = TEME
TIME_SYSTEM    = UTC
MEAN_ELEMENT_THEORY = SGP/SGP4

EPOCH          = 2025-11-03T20:05:25.484064
MEAN_MOTION    = 15.49393528
ECCENTRICITY   = .0002707
INCLINATION    = 53.1602
RA_OF_ASC_NODE = 237.4924
ARG_OF_PERICENTER = 82.3213
MEAN_ANOMALY   = 277.8103

EPHEMERIS_TYPE = 0
CLASSIFICATION_TYPE = U
NORAD_CAT_ID   = 65882
ELEMENT_SET_NO = 999
REV_AT_EPOCH   = 553
BSTAR          = .18246E-2
MEAN_MOTION_DOT = .102685E-2
MEAN_MOTION_DDOT = 0

CCSDS_OMM_VERS = 2.0
CREATION_DATE  = 
ORIGINATOR     = 

OBJECT_NAME    = STARLINK-35367
OBJECT_ID      = 2025-224B
CENTER_NAME    = EARTH
REF_FRAME      = TEME
TIME_SYSTEM    = UTC
MEAN_ELEMENT_THEORY = SGP/SGP4

EPOCH          = 2025-11-03T12:19:58.571040
MEAN_MOTION    = 15.49306096
ECCENTRICITY   = .0001642
INCLINATION    = 53.1606
RA_OF_ASC_NODE = 239.0311
ARG_OF_PERICENTER = 98.3154
MEAN_ANOMALY   = 261.8041

EPHEMERIS_TYPE = 0
CLASSIFICATION_TYPE = U
NORAD_CAT_ID   = 65883
ELEMENT_SET_NO = 999
REV_AT_EPOCH   = 548
BSTAR          = .17816E-5
MEAN_MOTION_DOT = -.35E-5
MEAN_MOTION_DDOT = 0

CCSDS_OMM_VERS = 2.0
CREATION_DATE  = 
ORIGINATOR     = 

OBJECT_NAME    = STARLINK-35384
OBJECT_ID      = 2025-224C
CENTER_NAME    = EARTH
REF_FRAME      = TEME
TIME_SYSTEM    = UTC
MEAN_ELEMENT_THEORY = SGP/SGP4

EPOCH          = 2025-11-03T16:00:00.999072
MEAN_MOTION    = 15.49304198
ECCENTRICITY   = .0000994
INCLINATION    = 53.1594
RA_OF_ASC_NODE = 238.2888
ARG_OF_PERICENTER = 96.6543
MEAN_ANOMALY   = 40.0756

EPHEMERIS_TYPE = 0
CLASSIFICATION_TYPE = U
NORAD_CAT_ID   = 65884
ELEMENT_SET_NO = 999
REV_AT_EPOCH   = 557
BSTAR          = -.35619E-3
MEAN_MOTION_DOT = -.20203E-3
MEAN_MOTION_DDOT = 0

CCSDS_OMM_VERS = 2.0
CREATION_DATE  = 
ORIGINATOR     = 

OBJECT_NAME    = STARLINK-35415
OBJECT_ID      = 2025-224D
CENTER_NAME    = EARTH
REF_FRAME      = TEME
TIME_SYSTEM    = UTC
MEAN_ELEMENT_THEORY = SGP/SGP4

EPOCH          = 2025-11-03T20:00:03.000384
MEAN_MOTION    = 15.49324684
ECCENTRICITY   = .0001345
INCLINATION    = 53.1596
RA_OF_ASC_NODE = 237.4845
ARG_OF_PERICENTER = 96.8426
MEAN_ANOMALY   = 253.9522

EPHEMERIS_TYPE = 0
CLASSIFICATION_TYPE = U
NORAD_CAT_ID   = 65885
ELEMENT_SET_NO = 999
REV_AT_EPOCH   = 555
BSTAR          = -.74811E-3
MEAN_MOTION_DOT = -.41856E-3
MEAN_MOTION_DDOT = 0

CCSDS_OMM_VERS = 2.0
CREATION_DATE  = 
ORIGINATOR     = 

OBJECT_NAME    = STARLINK-35413
OBJECT_ID      = 2025-224E
CENTER_NAME    = EARTH
REF_FRAME      = TEME
TIME_SYSTEM    = UTC
MEAN_ELEMENT_THEORY = SGP/SGP4

EPOCH          = 2025-11-03T12:17:00.777120
MEAN_MOTION    = 15.49343220
ECCENTRICITY   = .0002711
INCLINATION    = 53.1601
RA_OF_ASC_NODE = 239.0132
ARG_OF_PERICENTER = 90.3820
MEAN_ANOMALY   = 269.7499

EPHEMERIS_TYPE = 0
CLASSIFICATION_TYPE = U
NORAD_CAT_ID   = 65886
ELEMENT_SET_NO = 999
REV_AT_EPOCH   = 543
BSTAR          = .10272E-2
MEAN_MOTION_DOT = .57175E-3
MEAN_MOTION_DDOT = 0

CCSDS_OMM_VERS = 2.0
CREATION_DATE  = 
ORIGINATOR     = 

OBJECT_NAME    = STARLINK-35332
OBJECT_ID      = 2025-224F
CENTER_NAME    = EARTH
REF_FRAME      = TEME
TIME_SYSTEM    = UTC
MEAN_ELEMENT_THEORY = SGP/SGP4

EPOCH          = 2025-11-03T20:00:58.404384
MEAN_MOTION    = 15.49361538
ECCENTRICITY   = .0002333
INCLINATION    = 53.1606
RA_OF_ASC_NODE = 237.4702
ARG_OF_PERICENTER = 99.7804
MEAN_ANOMALY   = 260.3469

EPHEMERIS_TYPE = 0
CLASSIFICATION_TYPE = U
NORAD_CAT_ID   = 65887
ELEMENT_SET_NO = 999
REV_AT_EPOCH   = 556
BSTAR          = .22804E-2
MEAN_MOTION_DOT = .128733E-2
MEAN_MOTION_DDOT = 0

CCSDS_OMM_VERS = 2.0
CREATION_DATE  = 
ORIGINATOR     = 

OBJECT_NAME    = STARLINK-35362
OBJECT_ID      = 2025-224G
CENTER_NAME    = EARTH
REF_FRAME      = TEME
TIME_SYSTEM    = UTC
MEAN_ELEMENT_THEORY = SGP/SGP4

EPOCH          = 2025-11-03T20:04:55.623360
MEAN_MOTION    = 15.49358079
ECCENTRICITY   = .00013
INCLINATION    = 53.1612
RA_OF_ASC_NODE = 237.4886
ARG_OF_PERICENTER = 111.2481
MEAN_ANOMALY   = 248.8667

EPHEMERIS_TYPE = 0
CLASSIFICATION_TYPE = U
NORAD_CAT_ID   = 65888
ELEMENT_SET_NO = 999
REV_AT_EPOCH   = 553
BSTAR          = .14288E-2
MEAN_MOTION_DOT = .79969E-3
MEAN_MOTION_DDOT = 0

CCSDS_OMM_VERS = 2.0
CREATION_DATE  = 
ORIGINATOR     = 

OBJECT_NAME    = STARLINK-35193
OBJECT_ID      = 2025-224H
CENTER_NAME    = EARTH
REF_FRAME      = TEME
TIME_SYSTEM    = UTC
MEAN_ELEMENT_THEORY = SGP/SGP4

EPOCH          = 2025-11-02T12:00:02.000160
MEAN_MOTION    = 15.49346067
ECCENTRICITY   = .0001272
INCLINATION    = 53.1593
RA_OF_ASC_NODE = 243.6116
ARG_OF_PERICENTER = 89.3500
MEAN_ANOMALY   = 140.4705

EPHEMERIS_TYPE = 0
CLASSIFICATION_TYPE = U
NORAD_CAT_ID   = 65889
ELEMENT_SET_NO = 999
REV_AT_EPOCH   = 541
BSTAR          = -.19036E-2
MEAN_MOTION_DOT = -.105048E-2
MEAN_MOTION_DDOT = 0

CCSDS_OMM_VERS = 2.0
CREATION_DATE  = 
ORIGINATOR     = 

OBJECT_NAME    = STARLINK-34542
OBJECT_ID      = 2025-224J
CENTER_NAME    = EARTH
REF_FRAME      = TEME
TIME_SYSTEM    = UTC
MEAN_ELEMENT_THEORY = SGP/SGP4

EPOCH          = 2025-11-03T07:40:48.341280
MEAN_MOTION    = 15.49341566
ECCENTRICITY   = .0001159
INCLINATION    = 53.1609
RA_OF_ASC_NODE = 239.9489
ARG_OF_PERICENTER = 84.9589
MEAN_ANOMALY   = 275.1552

EPHEMERIS_TYPE = 0
CLASSIFICATION_TYPE = U
NORAD_CAT_ID   = 65890
ELEMENT_SET_NO = 999
REV_AT_EPOCH   = 550
BSTAR          = .17074E-2
MEAN_MOTION_DOT = .95792E-3
MEAN_MOTION_DDOT = 0

CCSDS_OMM_VERS = 2.0
CREATION_DATE  = 
ORIGINATOR     = 

OBJECT_NAME    = STARLINK-34791
OBJECT_ID      = 2025-224K
CENTER_NAME    = EARTH
REF_FRAME      = TEME
TIME_SYSTEM    = UTC
MEAN_ELEMENT_THEORY = SGP/SGP4

EPOCH          = 2025-11-03T20:00:03.000384
MEAN_MOTION    = 15.49321092
ECCENTRICITY   = .0001227
INCLINATION    = 53.1608
RA_OF_ASC_NODE = 237.2430
ARG_OF_PERICENTER = 97.8579
MEAN_ANOMALY   = 9.1204

EPHEMERIS_TYPE = 0
CLASSIFICATION_TYPE = U
NORAD_CAT_ID   = 65891
ELEMENT_SET_NO = 999
REV_AT_EPOCH   = 565
BSTAR          = -.75887E-3
MEAN_MOTION_DOT = -.42443E-3
MEAN_MOTION_DDOT = 0

CCSDS_OMM_VERS = 2.0
CREATION_DATE  = 
ORIGINATOR     = 

OBJECT_NAME    = STARLINK-34853
OBJECT_ID      = 2025-224L
CENTER_NAME    = EARTH
REF_FRAME      = TEME
TIME_SYSTEM    = UTC
MEAN_ELEMENT_THEORY = SGP/SGP4

EPOCH          = 2025-11-03T18:29:34.369152
MEAN_MOTION    = 15.50669785
ECCENTRICITY   = .0003087
INCLINATION    = 53.1609
RA_OF_ASC_NODE = 237.7846
ARG_OF_PERICENTER = 222.5634
MEAN_ANOMALY   = 137.5137

EPHEMERIS_TYPE = 0
CLASSIFICATION_TYPE = U
NORAD_CAT_ID   = 65892
ELEMENT_SET_NO = 999
REV_AT_EPOCH   = 550
BSTAR          = .43889E-2
MEAN_MOTION_DOT = .26451E-2
MEAN_MOTION_DDOT = 0

CCSDS_OMM_VERS = 2.0
CREATION_DATE  = 
ORIGINATOR     = 

OBJECT_NAME    = STARLINK-34921
OBJECT_ID      = 2025-224M
CENTER_NAME    = EARTH
REF_FRAME      = TEME
TIME_SYSTEM    = UTC
MEAN_ELEMENT_THEORY = SGP/SGP4

EPOCH          = 2025-11-03T19:30:59.567616
MEAN_MOTION    = 15.49387477
ECCENTRICITY   = .0001152
INCLINATION    = 53.1613
RA_OF_ASC_NODE = 237.3288
ARG_OF_PERICENTER = 101.7071
MEAN_ANOMALY   = 258.4068

EPHEMERIS_TYPE = 0
CLASSIFICATION_TYPE = U
NORAD_CAT_ID   = 65893
ELEMENT_SET_NO = 999
REV_AT_EPOCH   = 558
BSTAR          = .24808E-2
MEAN_MOTION_DOT = .140415E-2
MEAN_MOTION_DDOT = 0

